IXPE                    
1 49954U 21121A   24275.25001157  .00014416  00000+0  10521-2 0  9995
2 49954   0.2300 325.3467 0009251  58.3579 104.0357 15.00250491153840
